[
    {
        "Altitude(m)": 607911.0079763375,
        "Argument of Periapsis(deg)": 0.0,
        "Eccentricity": 0.0,
        "Inclination(deg)": 60.0,
        "Latitude(deg)": -14.292938242542162,
        "Longitude(deg)": 3.442678780070268,
        "Mean Anomaly(deg)": -163.6364,
        "RAAN(deg)": 275.0,
        "Satellite Name": "Test1 1222",
        "Satellite Number": 1222,
        "Semi-Major Axis(m)": 6980739.136638005,
        "Time(s)": 0
    },
    {
        "Altitude(m)": 608060.2414197242,
        "Argument of Periapsis(deg)": 0.00010418945913296404,
        "Eccentricity": 0.0,
        "Inclination(deg)": 60.0,
        "Latitude(deg)": -14.8265990196773,
        "Longitude(deg)": 3.731289431821463,
        "Mean Anomaly(deg)": -163.01629385453816,
        "RAAN(deg)": 274.9995799508602,
        "Satellite Name": "Test1 1222",
        "Satellite Number": 1222,
        "Semi-Major Axis(m)": 6980739.136638005,
        "Time(s)": 10
    }
]